"{\n    \"CCSDS_OMM_VERS\": \"2.0\",\n    \"COMMENT\": \"GENERATED VIA SPACE-TRACK.ORG API\",\n    \"CREATION_DATE\": \"2025-08-31T02:26:50\",\n    \"ORIGINATOR\": \"18 SPCS\",\n    \"OBJECT_NAME\": \"BD-2-G7\",\n    \"OBJECT_ID\": \"2016-037A\",\n    \"CENTER_NAME\": \"EARTH\",\n    \"REF_FRAME\": \"TEME\",\n    \"TIME_SYSTEM\": \"UTC\",\n    \"MEAN_ELEMENT_THEORY\": \"SGP4\",\n    \"EPOCH\": \"2025-08-30T14:05:38.647104\",\n    \"MEAN_MOTION\": \"1.0028569893\",\n    \"ECCENTRICITY\": \"0.00067797176\",\n    \"INCLINATION\": \"1.4982359\",\n    \"RA_OF_ASC_NODE\": \"66.302625\",\n    \"ARG_OF_PERICENTER\": \"353.12191\",\n    \"MEAN_ANOMALY\": \"241.54372\",\n    \"EPHEMERIS_TYPE\": \"0\",\n    \"CLASSIFICATION_TYPE\": \"U\",\n    \"NORAD_CAT_ID\": \"41586\",\n    \"ELEMENT_SET_NO\": \"999\",\n    \"REV_AT_EPOCH\": \"397\",\n    \"BSTAR\": \"0\",\n    \"MEAN_MOTION_DOT\": \"-0.00000350761\",\n    \"MEAN_MOTION_DDOT\": \"0\",\n    \"TLE_LINE0\": \"0 BD-2-G7\",\n    \"TLE_LINE1\": \"1 41586U 16037A   25242.58725286 -.00000351  00000-0  00000-0 0  9999\",\n    \"TLE_LINE2\": \"2 41586   1.4982  66.3026 0006780 353.1219 241.5437  1.00285699  3973\",\n    \"SEMIMAJOR_AXIS\": \"42160.832\",\n    \"PERIOD\": \"1435.898\",\n    \"APOAPSIS\": \"35811.281\",\n    \"PERIAPSIS\": \"35754.113\",\n    \"OBJECT_TYPE\": \"PAYLOAD\",\n    \"DECAYED\": \"0\"\n}"